[{"OBJECT_NAME":"OCO 2","OBJECT_ID":"2014-035A","EPOCH":"2026-03-15T05:10:06.004128","MEAN_MOTION":14.57101345,"ECCENTRICITY":0.00013262,"INCLINATION":98.2,"RA_OF_ASC_NODE":16.9792,"ARG_OF_PERICENTER":95.1187,"MEAN_ANOMALY":265.0163,"EPHEMERIS_TYPE":0,"CLASSIFICATION_TYPE":"U","NORAD_CAT_ID":40059,"ELEMENT_SET_NO":999,"REV_AT_EPOCH":62236,"BSTAR":0.00014984884,"MEAN_MOTION_DOT":6.3e-6,"MEAN_MOTION_DDOT":0},{"OBJECT_NAME":"BRITE-PL2 (HEWELIUSZ)","OBJECT_ID":"2014-049B","EPOCH":"2026-03-15T05:33:08.022240","MEAN_MOTION":14.94212372,"ECCENTRICITY":0.0015091,"INCLINATION":97.898,"RA_OF_ASC_NODE":185.5936,"ARG_OF_PERICENTER":64.3202,"MEAN_ANOMALY":295.9574,"EPHEMERIS_TYPE":0,"CLASSIFICATION_TYPE":"U","NORAD_CAT_ID":40119,"ELEMENT_SET_NO":999,"REV_AT_EPOCH":62741,"BSTAR":0.0002223373,"MEAN_MOTION_DOT":2.329e-5,"MEAN_MOTION_DDOT":0},{"OBJECT_NAME":"MMS 1","OBJECT_ID":"2015-011A","EPOCH":"2026-03-15T08:00:01.999872","MEAN_MOTION":0.28306612,"ECCENTRICITY":0.84048336,"INCLINATION":70.854,"RA_OF_ASC_NODE":350.0647,"ARG_OF_PERICENTER":165.368,"MEAN_ANOMALY":85.5792,"EPHEMERIS_TYPE":0,"CLASSIFICATION_TYPE":"U","NORAD_CAT_ID":40482,"ELEMENT_SET_NO":999,"REV_AT_EPOCH":136,"BSTAR":0,"MEAN_MOTION_DOT":-1.869e-5,"MEAN_MOTION_DDOT":0},{"OBJECT_NAME":"MMS 2","OBJECT_ID":"2015-011B","EPOCH":"2026-03-15T08:00:01.999872","MEAN_MOTION":0.28306852,"ECCENTRICITY":0.84056116,"INCLINATION":70.8563,"RA_OF_ASC_NODE":350.066,"ARG_OF_PERICENTER":165.3741,"MEAN_ANOMALY":85.5637,"EPHEMERIS_TYPE":0,"CLASSIFICATION_TYPE":"U","NORAD_CAT_ID":40483,"ELEMENT_SET_NO":999,"REV_AT_EPOCH":136,"BSTAR":0,"MEAN_MOTION_DOT":-1.87e-5,"MEAN_MOTION_DDOT":0},{"OBJECT_NAME":"MMS 3","OBJECT_ID":"2015-011C","EPOCH":"2026-03-15T08:00:01.999872","MEAN_MOTION":0.28306824,"ECCENTRICITY":0.84048873,"INCLINATION":70.8587,"RA_OF_ASC_NODE":350.0707,"ARG_OF_PERICENTER":165.3682,"MEAN_ANOMALY":85.5711,"EPHEMERIS_TYPE":0,"CLASSIFICATION_TYPE":"U","NORAD_CAT_ID":40484,"ELEMENT_SET_NO":999,"REV_AT_EPOCH":136,"BSTAR":0,"MEAN_MOTION_DOT":-1.869e-5,"MEAN_MOTION_DDOT":0},{"OBJECT_NAME":"MMS 4","OBJECT_ID":"2015-011D","EPOCH":"2026-03-15T08:00:01.999872","MEAN_MOTION":0.28306811,"ECCENTRICITY":0.84043955,"INCLINATION":70.8566,"RA_OF_ASC_NODE":350.0658,"ARG_OF_PERICENTER":165.3756,"MEAN_ANOMALY":85.557,"EPHEMERIS_TYPE":0,"CLASSIFICATION_TYPE":"U","NORAD_CAT_ID":40485,"ELEMENT_SET_NO":999,"REV_AT_EPOCH":136,"BSTAR":0,"MEAN_MOTION_DOT":-1.869e-5,"MEAN_MOTION_DDOT":0},{"OBJECT_NAME":"ASTROSAT","OBJECT_ID":"2015-052A","EPOCH":"2026-03-15T04:07:49.165248","MEAN_MOTION":14.82315921,"ECCENTRICITY":0.0007603,"INCLINATION":5.9966,"RA_OF_ASC_NODE":111.9814,"ARG_OF_PERICENTER":134.7003,"MEAN_ANOMALY":225.3744,"EPHEMERIS_TYPE":0,"CLASSIFICATION_TYPE":"U","NORAD_CAT_ID":40930,"ELEMENT_SET_NO":999,"REV_AT_EPOCH":56585,"BSTAR":0.00017511719,"MEAN_MOTION_DOT":2.104e-5,"MEAN_MOTION_DDOT":0},{"OBJECT_NAME":"DAMPE","OBJECT_ID":"2015-078A","EPOCH":"2026-03-15T07:00:53.652096","MEAN_MOTION":15.30521867,"ECCENTRICITY":0.0013614,"INCLINATION":97.4587,"RA_OF_ASC_NODE":79.3071,"ARG_OF_PERICENTER":53.8223,"MEAN_ANOMALY":306.4275,"EPHEMERIS_TYPE":0,"CLASSIFICATION_TYPE":"U","NORAD_CAT_ID":41173,"ELEMENT_SET_NO":999,"REV_AT_EPOCH":57018,"BSTAR":6.7938967e-5,"MEAN_MOTION_DOT":1.931e-5,"MEAN_MOTION_DDOT":0},{"OBJECT_NAME":"PISAT","OBJECT_ID":"2016-059B","EPOCH":"2026-03-15T06:36:20.466432","MEAN_MOTION":14.6878902,"ECCENTRICITY":0.00299807,"INCLINATION":97.8192,"RA_OF_ASC_NODE":78.7749,"ARG_OF_PERICENTER":143.2796,"MEAN_ANOMALY":217.0472,"EPHEMERIS_TYPE":0,"CLASSIFICATION_TYPE":"U","NORAD_CAT_ID":41784,"ELEMENT_SET_NO":999,"REV_AT_EPOCH":50595,"BSTAR":0.00020911563,"MEAN_MOTION_DOT":1.181e-5,"MEAN_MOTION_DDOT":0},{"OBJECT_NAME":"HXMT (HUIYAN)","OBJECT_ID":"2017-034A","EPOCH":"2026-03-15T05:46:41.398752","MEAN_MOTION":15.17552966,"ECCENTRICITY":0.00332612,"INCLINATION":43.0161,"RA_OF_ASC_NODE":345.8108,"ARG_OF_PERICENTER":269.6742,"MEAN_ANOMALY":90.0295,"EPHEMERIS_TYPE":0,"CLASSIFICATION_TYPE":"U","NORAD_CAT_ID":42758,"ELEMENT_SET_NO":999,"REV_AT_EPOCH":48338,"BSTAR":0.0003787507,"MEAN_MOTION_DOT":7.618e-5,"MEAN_MOTION_DDOT":0},{"OBJECT_NAME":"FLYING LAPTOP","OBJECT_ID":"2017-042G","EPOCH":"2026-03-15T07:30:31.109184","MEAN_MOTION":15.0055978,"ECCENTRICITY":0.00197127,"INCLINATION":97.4282,"RA_OF_ASC_NODE":233.7368,"ARG_OF_PERICENTER":77.923,"MEAN_ANOMALY":282.4202,"EPHEMERIS_TYPE":0,"CLASSIFICATION_TYPE":"U","NORAD_CAT_ID":42831,"ELEMENT_SET_NO":999,"REV_AT_EPOCH":47237,"BSTAR":0.00028713443,"MEAN_MOTION_DOT":3.581e-5,"MEAN_MOTION_DDOT":0},{"OBJECT_NAME":"ZHANGHENG 1-01 (CSES-1)","OBJECT_ID":"2018-015C","EPOCH":"2026-03-14T06:14:35.732256","MEAN_MOTION":15.21136298,"ECCENTRICITY":0.00150995,"INCLINATION":97.6758,"RA_OF_ASC_NODE":237.0795,"ARG_OF_PERICENTER":227.8892,"MEAN_ANOMALY":132.106,"EPHEMERIS_TYPE":0,"CLASSIFICATION_TYPE":"U","NORAD_CAT_ID":43194,"ELEMENT_SET_NO":999,"REV_AT_EPOCH":45021,"BSTAR":0.00055111669,"MEAN_MOTION_DOT":0.00012243,"MEAN_MOTION_DDOT":0},{"OBJECT_NAME":"SALSAT","OBJECT_ID":"2020-068K","EPOCH":"2026-03-15T05:43:28.441632","MEAN_MOTION":15.28307413,"ECCENTRICITY":0.00080338,"INCLINATION":97.8857,"RA_OF_ASC_NODE":71.6917,"ARG_OF_PERICENTER":272.6742,"MEAN_ANOMALY":87.3577,"EPHEMERIS_TYPE":0,"CLASSIFICATION_TYPE":"U","NORAD_CAT_ID":46495,"ELEMENT_SET_NO":999,"REV_AT_EPOCH":30100,"BSTAR":0.00037867351,"MEAN_MOTION_DOT":0.00010372,"MEAN_MOTION_DDOT":0},{"OBJECT_NAME":"IXPE","OBJECT_ID":"2021-121A","EPOCH":"2026-03-15T08:00:01.999872","MEAN_MOTION":15.09298246,"ECCENTRICITY":0.00067842,"INCLINATION":0.2315,"RA_OF_ASC_NODE":307.0424,"ARG_OF_PERICENTER":99.1105,"MEAN_ANOMALY":237.0949,"EPHEMERIS_TYPE":0,"CLASSIFICATION_TYPE":"U","NORAD_CAT_ID":49954,"ELEMENT_SET_NO":999,"REV_AT_EPOCH":513,"BSTAR":0.00078419226,"MEAN_MOTION_DOT":0.00013815,"MEAN_MOTION_DDOT":0}]
