OCO 2                   
1 40059U 14035A   26074.21534727  .00000630  00000+0  14985-3 0  9999
2 40059  98.2000  16.9792 0001326  95.1187 265.0163 14.57101345622369
BRITE-PL2 (HEWELIUSZ)   
1 40119U 14049B   26074.23134285  .00002329  00000+0  22234-3 0  9991
2 40119  97.8980 185.5936 0015091  64.3202 295.9574 14.94212372627414
MMS 1                   
1 40482U 15011A   26074.33335648 -.00001869  00000+0  00000+0 0  9993
2 40482  70.8540 350.0647 8404833 165.3680  85.5792  0.28306612  1362
MMS 2                   
1 40483U 15011B   26074.33335648 -.00001870  00000+0  00000+0 0  9996
2 40483  70.8563 350.0660 8405611 165.3741  85.5637  0.28306852  1360
MMS 3                   
1 40484U 15011C   26074.33335648 -.00001869  00000+0  00000+0 0  9995
2 40484  70.8587 350.0707 8404887 165.3682  85.5711  0.28306824  1369
MMS 4                   
1 40485U 15011D   26074.33335648 -.00001869  00000+0  00000+0 0  9996
2 40485  70.8566 350.0658 8404395 165.3756  85.5570  0.28306811  1367
ASTROSAT                
1 40930U 15052A   26074.17209682  .00002104  00000+0  17512-3 0  9998
2 40930   5.9966 111.9814 0007603 134.7003 225.3744 14.82315921565854
DAMPE                   
1 41173U 15078A   26074.29228764  .00001931  00000+0  67939-4 0  9997
2 41173  97.4587  79.3071 0013614  53.8223 306.4275 15.30521867570189
PISAT                   
1 41784U 16059B   26074.27523688  .00001181  00000+0  20912-3 0  9992
2 41784  97.8192  78.7749 0029980 143.2796 217.0472 14.68789020505956
HXMT (HUIYAN)           
1 42758U 17034A   26074.24075693  .00007618  00000+0  37875-3 0  9990
2 42758  43.0161 345.8108 0033261 269.6742  90.0295 15.17552966483381
FLYING LAPTOP           
1 42831U 17042G   26074.31286006  .00003581  00000+0  28713-3 0  9997
2 42831  97.4282 233.7368 0019712  77.9230 282.4202 15.00559780472375
ZHANGHENG 1-01 (CSES-1) 
1 43194U 18015C   26073.26013579  .00012243  00000+0  55112-3 0  9995
2 43194  97.6758 237.0795 0015099 227.8892 132.1060 15.21136298450213
SALSAT                  
1 46495U 20068K   26074.23852363  .00010372  00000+0  37867-3 0  9991
2 46495  97.8857  71.6917 0008033 272.6742  87.3577 15.28307413301004
IXPE                    
1 49954U 21121A   26074.33335648  .00013815  00000+0  78419-3 0  9991
2 49954   0.2315 307.0424 0006784  99.1105 237.0949 15.09298246  5133
